{"type": "FeatureCollection", "features": [ {"type": "Feature", "properties": {"norad_id": 66604, "name": "STARLINK-35977", "group": "last-30-days", "lat": -42.61338152261094, "lon": 41.57035832015261, "alt_km": 446.266017343939, "timestamp": "2025-12-21T16:47:53.448023+00:00", "meta": {"OBJECT_NAME": "STARLINK-35977", "OBJECT_ID": "2025-270S", "EPOCH": "2025-12-21T10:59:35.481120", "MEAN_MOTION": 15.40740127, "ECCENTRICITY": 0.0001438, "INCLINATION": 42.9997, "RA_OF_ASC_NODE": 142.1179, "ARG_OF_PERICENTER": 274.165, "MEAN_ANOMALY": 85.9042, "EPHEMERIS_TYPE": 0, "CLASSIFICATION_TYPE": "U", "NORAD_CAT_ID": 66604, "ELEMENT_SET_NO": 999, "REV_AT_EPOCH": 569, "BSTAR": 0.0010045, "MEAN_MOTION_DOT": 0.00041942, "MEAN_MOTION_DDOT": 0}, "tle": {"line1": "1 66604U 25270S   25355.45804955  .00041942  00000+0  10045-2 0  9999", "line2": "2 66604  42.9997 142.1179 0001438 274.1650  85.9042 15.40740127  5699"}}, "geometry": {"type": "Point", "coordinates": [41.57035832015261, -42.61338152261094]}}, {"type": "Feature", "properties": {"norad_id": 66605, "name": "STARLINK-36052", "group": "last-30-days", "lat": -14.994351729514607, "lon": 123.84027288786187, "alt_km": 444.5958106100861, "timestamp": "2025-12-21T16:47:53.448033+00:00", "meta": {"OBJECT_NAME": "STARLINK-36052", "OBJECT_ID": "2025-270T", "EPOCH": "2025-12-21T12:00:02.000160", "MEAN_MOTION": 15.40713501, "ECCENTRICITY": 0.0002229, "INCLINATION": 42.9999, "RA_OF_ASC_NODE": 141.6968, "ARG_OF_PERICENTER": 281.6101, "MEAN_ANOMALY": 26.062, "EPHEMERIS_TYPE": 0, "CLASSIFICATION_TYPE": "U", "NORAD_CAT_ID": 66605, "ELEMENT_SET_NO": 999, "REV_AT_EPOCH": 580, "BSTAR": 0.00051161, "MEAN_MOTION_DOT": 0.00021137, "MEAN_MOTION_DDOT": 0}, "tle": {"line1": "1 66605U 25270T   25355.50002315  .00021137  00000+0  51161-3 0  9995", "line2": "2 66605  42.9999 141.6968 0002229 281.6101  26.0620 15.40713501  5802"}}, "geometry": {"type": "Point", "coordinates": [123.84027288786187, -14.994351729514607]}}, {"type": "Feature", "properties": {"norad_id": 66606, "name": "STARLINK-36063", "group": "last-30-days", "lat": 41.87781372930514, "lon": -113.95137524542585, "alt_km": 408.6919693869404, "timestamp": "2025-12-21T16:47:53.448046+00:00", "meta": {"OBJECT_NAME": "STARLINK-36063", "OBJECT_ID": "2025-270U", "EPOCH": "2025-12-19T11:48:20.511648", "MEAN_MOTION": 15.50662232, "ECCENTRICITY": 0.0001816, "INCLINATION": 42.9987, "RA_OF_ASC_NODE": 153.1595, "ARG_OF_PERICENTER": 282.0515, "MEAN_ANOMALY": 78.0141, "EPHEMERIS_TYPE": 0, "CLASSIFICATION_TYPE": "U", "NORAD_CAT_ID": 66606, "ELEMENT_SET_NO": 999, "REV_AT_EPOCH": 539, "BSTAR": 0.00079676, "MEAN_MOTION_DOT": 0.0004682, "MEAN_MOTION_DDOT": 0}, "tle": {"line1": "1 66606U 25270U   25353.49190407  .00046820  00000+0  79676-3 0  9999", "line2": "2 66606  42.9987 153.1595 0001816 282.0515  78.0141 15.50662232  5393"}}, "geometry": {"type": "Point", "coordinates": [-113.95137524542585, 41.87781372930514]}}, {"type": "Feature", "properties": {"norad_id": 66607, "name": "STARLINK-35993", "group": "last-30-days", "lat": -6.727293209298468, "lon": 133.24225736950865, "alt_km": 444.4041125117283, "timestamp": "2025-12-21T16:47:53.448056+00:00", "meta": {"OBJECT_NAME": "STARLINK-35993", "OBJECT_ID": "2025-270V", "EPOCH": "2025-12-21T12:00:02.000160", "MEAN_MOTION": 15.40718167, "ECCENTRICITY": 0.0001822, "INCLINATION": 42.9998, "RA_OF_ASC_NODE": 141.6667, "ARG_OF_PERICENTER": 266.936, "MEAN_ANOMALY": 53.1468, "EPHEMERIS_TYPE": 0, "CLASSIFICATION_TYPE": "U", "NORAD_CAT_ID": 66607, "ELEMENT_SET_NO": 999, "REV_AT_EPOCH": 571, "BSTAR": 0.00032595, "MEAN_MOTION_DOT": 0.00013344, "MEAN_MOTION_DDOT": 0}, "tle": {"line1": "1 66607U 25270V   25355.50002315  .00013344  00000+0  32595-3 0  9998", "line2": "2 66607  42.9998 141.6667 0001822 266.9360  53.1468 15.40718167  5714"}}, "geometry": {"type": "Point", "coordinates": [133.24225736950865, -6.727293209298468]}}, {"type": "Feature", "properties": {"norad_id": 66608, "name": "STARLINK-36036", "group": "last-30-days", "lat": 41.557117857224014, "lon": -111.82619648362845, "alt_km": 408.55468840926005, "timestamp": "2025-12-21T16:47:53.448066+00:00", "meta": {"OBJECT_NAME": "STARLINK-36036", "OBJECT_ID": "2025-270W", "EPOCH": "2025-12-19T11:47:53.026080", "MEAN_MOTION": 15.50612484, "ECCENTRICITY": 0.0001538, "INCLINATION": 42.999, "RA_OF_ASC_NODE": 153.1562, "ARG_OF_PERICENTER": 266.4602, "MEAN_ANOMALY": 93.6082, "EPHEMERIS_TYPE": 0, "CLASSIFICATION_TYPE": "U", "NORAD_CAT_ID": 66608, "ELEMENT_SET_NO": 999, "REV_AT_EPOCH": 523, "BSTAR": 0.0010303, "MEAN_MOTION_DOT": 0.00060643, "MEAN_MOTION_DDOT": 0}, "tle": {"line1": "1 66608U 25270W   25353.49158595  .00060643  00000+0  10303-2 0  9993", "line2": "2 66608  42.9990 153.1562 0001538 266.4602  93.6082 15.50612484  5231"}}, "geometry": {"type": "Point", "coordinates": [-111.82619648362845, 41.557117857224014]}}, {"type": "Feature", "properties": {"norad_id": 66609, "name": "STARLINK-36034", "group": "last-30-days", "lat": 41.588341059816656, "lon": -112.01758010802848, "alt_km": 405.982213238598, "timestamp": "2025-12-21T16:47:53.448077+00:00", "meta": {"OBJECT_NAME": "STARLINK-36034", "OBJECT_ID": "2025-270X", "EPOCH": "2025-12-20T17:09:50.095296", "MEAN_MOTION": 15.50362019, "ECCENTRICITY": 0.00048554, "INCLINATION": 42.9992, "RA_OF_ASC_NODE": 145.9955, "ARG_OF_PERICENTER": 131.0653, "MEAN_ANOMALY": 229.0628, "EPHEMERIS_TYPE": 0, "CLASSIFICATION_TYPE": "U", "NORAD_CAT_ID": 66609, "ELEMENT_SET_NO": 999, "REV_AT_EPOCH": 542, "BSTAR": 0.0011127835, "MEAN_MOTION_DOT": 0.00065002, "MEAN_MOTION_DDOT": 0}, "tle": {"line1": "1 66609U 25270X   25354.71516314  .00065002  00000+0  11128-2 0  9997", "line2": "2 66609  42.9992 145.9955 0004855 131.0653 229.0628 15.50362019  5425"}}, "geometry": {"type": "Point", "coordinates": [-112.01758010802848, 41.588341059816656]}}, {"type": "Feature", "properties": {"norad_id": 66610, "name": "STARLINK-35680", "group": "last-30-days", "lat": 10.170132915632704, "lon": 151.55219360738445, "alt_km": 442.33262218932396, "timestamp": "2025-12-21T16:47:53.448087+00:00", "meta": {"OBJECT_NAME": "STARLINK-35680", "OBJECT_ID": "2025-270Y", "EPOCH": "2025-12-21T12:00:02.000160", "MEAN_MOTION": 15.40708714, "ECCENTRICITY": 0.0002047, "INCLINATION": 42.9995, "RA_OF_ASC_NODE": 141.605, "ARG_OF_PERICENTER": 284.71, "MEAN_ANOMALY": 60.278, "EPHEMERIS_TYPE": 0, "CLASSIFICATION_TYPE": "U", "NORAD_CAT_ID": 66610, "ELEMENT_SET_NO": 999, "REV_AT_EPOCH": 591, "BSTAR": 0.00029285, "MEAN_MOTION_DOT": 0.00011952, "MEAN_MOTION_DDOT": 0}, "tle": {"line1": "1 66610U 25270Y   25355.50002315  .00011952  00000+0  29285-3 0  9997", "line2": "2 66610  42.9995 141.6050 0002047 284.7100  60.2780 15.40708714  5916"}}, "geometry": {"type": "Point", "coordinates": [151.55219360738445, 10.170132915632704]}}, {"type": "Feature", "properties": {"norad_id": 66611, "name": "STARLINK-35583", "group": "last-30-days", "lat": 25.98776687413174, "lon": 171.93496498975506, "alt_km": 440.3348565563947, "timestamp": "2025-12-21T16:47:53.448098+00:00", "meta": {"OBJECT_NAME": "STARLINK-35583", "OBJECT_ID": "2025-270Z", "EPOCH": "2025-12-21T12:00:02.000160", "MEAN_MOTION": 15.4069104, "ECCENTRICITY": 0.0001536, "INCLINATION": 42.9994, "RA_OF_ASC_NODE": 141.5449, "ARG_OF_PERICENTER": 286.2206, "MEAN_ANOMALY": 83.7545, "EPHEMERIS_TYPE": 0, "CLASSIFICATION_TYPE": "U", "NORAD_CAT_ID": 66611, "ELEMENT_SET_NO": 999, "REV_AT_EPOCH": 591, "BSTAR": 0.00028722, "MEAN_MOTION_DOT": 0.00011709, "MEAN_MOTION_DDOT": 0}, "tle": {"line1": "1 66611U 25270Z   25355.50002315  .00011709  00000+0  28722-3 0  9993", "line2": "2 66611  42.9994 141.5449 0001536 286.2206  83.7545 15.40691040  5915"}}, "geometry": {"type": "Point", "coordinates": [171.93496498975506, 25.98776687413174]}}, {"type": "Feature", "properties": {"norad_id": 66612, "name": "STARLINK-36039", "group": "last-30-days", "lat": 18.90043724167827, "lon": -60.566981183219475, "alt_km": 440.4912104388968, "timestamp": "2025-12-21T16:47:53.448108+00:00", "meta": {"OBJECT_NAME": "STARLINK-36039", "OBJECT_ID": "2025-270AA", "EPOCH": "2025-12-20T10:34:58.712448", "MEAN_MOTION": 15.40726185, "ECCENTRICITY": 0.00016577, "INCLINATION": 43.0005, "RA_OF_ASC_NODE": 148.2468, "ARG_OF_PERICENTER": 221.4551, "MEAN_ANOMALY": 138.618, "EPHEMERIS_TYPE": 0, "CLASSIFICATION_TYPE": "U", "NORAD_CAT_ID": 66612, "ELEMENT_SET_NO": 999, "REV_AT_EPOCH": 553, "BSTAR": 0.00084609538, "MEAN_MOTION_DOT": 0.00035234, "MEAN_MOTION_DDOT": 0}, "tle": {"line1": "1 66612U 25270AA  25354.44095732  .00035234  00000+0  84610-3 0  9998", "line2": "2 66612  43.0005 148.2468 0001657 221.4551 138.6180 15.40726185  5536"}}, "geometry": {"type": "Point", "coordinates": [-60.566981183219475, 18.90043724167827]}}, {"type": "Feature", "properties": {"norad_id": 66613, "name": "STARLINK-36037", "group": "last-30-days", "lat": 2.5634748111052708, "lon": -41.821420969548, "alt_km": 442.89965229871905, "timestamp": "2025-12-21T16:47:53.448118+00:00", "meta": {"OBJECT_NAME": "STARLINK-36037", "OBJECT_ID": "2025-270AB", "EPOCH": "2025-12-21T11:22:10.566624", "MEAN_MOTION": 15.40728039, "ECCENTRICITY": 0.0001294, "INCLINATION": 42.9987, "RA_OF_ASC_NODE": 142.2364, "ARG_OF_PERICENTER": 234.5292, "MEAN_ANOMALY": 125.5444, "EPHEMERIS_TYPE": 0, "CLASSIFICATION_TYPE": "U", "NORAD_CAT_ID": 66613, "ELEMENT_SET_NO": 999, "REV_AT_EPOCH": 569, "BSTAR": 0.00091489, "MEAN_MOTION_DOT": 0.0003814, "MEAN_MOTION_DDOT": 0}, "tle": {"line1": "1 66613U 25270AB  25355.47373341  .00038140  00000+0  91489-3 0  9999", "line2": "2 66613  42.9987 142.2364 0001294 234.5292 125.5444 15.40728039  5692"}}, "geometry": {"type": "Point", "coordinates": [-41.821420969548, 2.5634748111052708]}}]}